SCD 1                   
1 22490U 93009B   26202.13674927  .00000341  00000+0  42377-4 0  9993
2 22490  24.9708 357.9559 0041995 137.1161  23.8457 14.46130241766037
TECHSAT 1B (GO-32)      
1 25397U 98043D   26202.27265565  .00000032  00000+0  34150-4 0  9991
2 25397  99.0091 195.8944 0002314 105.1892 254.9542 14.24434116456187
SCD 2                   
1 25504U 98060A   26202.27640215  .00000292  00000+0  30705-4 0  9999
2 25504  24.9936 221.9326 0016953 122.8361 328.2879 14.45535974465262
DLR-TUBSAT              
1 25757U 99029B   26202.18735817  .00000031  00000+0  19462-4 0  9996
2 25757  98.6715 198.8134 0013085 244.9693 115.0143 14.52434030438187
TERRA                   
1 25994U 99068A   26202.25910914  .00000245  00000+0  58786-4 0  9992
2 25994  97.9436 250.4512 0003618 110.9634 313.8018 14.61126820414587
MAROC-TUBSAT            
1 27004U 01056D   26202.11301584 -.00000031  00000+0  17301-4 0  9990
2 27004  99.8104  19.6150 0020515  57.4915  64.0330 13.70263631230836
AQUA                    
1 27424U 02022A   26202.27823361  .00000514  00000+0  11203-3 0  9998
2 27424  98.4301 172.2474 0001316 102.0253   1.6389 14.62134327288252
SHIYAN-1 (SY-1)         
1 28220U 04012A   26202.16471731  .00009576  00000+0  28867-3 0  9993
2 28220  97.8672 282.4596 0004317 247.3909 112.6876 15.34543547216304
AURA                    
1 28376U 04026A   26202.22122286  .00000511  00000+0  11306-3 0  9995
2 28376  98.3434 158.9609 0001403  93.7196 266.4165 14.61373530171181
IRS-P5 (CARTOSAT-1)     
1 28649U 05017A   26202.30267033  .00000797  00000+0  85646-4 0  9993
2 28649  97.5306 223.8201 0001002  56.1606 303.9709 14.91127421148901
SINAH 1                 
1 28893U 05043D   26202.29190378  .00000206  00000+0  48496-4 0  9995
2 28893  98.2901 336.8224 0014822 164.7382 195.4270 14.64178103105512
RESURS-DK 1             
1 29228U 06021A   26202.14319399  .00001263  00000+0  76793-4 0  9990
2 29228  69.9300 251.6453 0007450 264.6911  95.3405 15.13333275107718
ARIRANG-2 (KOMPSAT-2)   
1 29268U 06031A   26202.32588141  .00000047  00000+0  17224-4 0  9991
2 29268  97.8324  25.1223 0013711 330.8842 152.0438 14.64677124 66476
LAPAN-TUBSAT            
1 29709U 07001A   26202.25967743 -.00000299  00000+0 -27534-4 0  9996
2 29709  98.1363 202.2548 0013623  76.3151 283.9580 14.85978482 56215
HAIYANG-1B              
1 31113U 07010A   26202.19584433  .00000063  00000+0  39732-4 0  9992
2 31113  98.3520 182.7261 0014814  99.4951 260.7907 14.31034358  5503
COSMO-SKYMED 1          
1 31598U 07023A   26202.28703443  .00002213  00000+0  19631-3 0  9991
2 31598  97.8855  34.4321 0001808  95.7808 264.3620 14.97242515 34898
TERRASAR-X              
1 31698U 07026A   26201.45521513  .00000429  00000+0  23629-4 0  9999
2 31698  97.4462 208.6875 0001654  86.3294 273.8130 15.19149077 58275
WORLDVIEW-1 (WV-1)      
1 32060U 07041A   26202.22776613  .00004452  00000+0  18347-3 0  9999
2 32060  97.3903 321.4966 0002126 182.1210 178.0019 15.24600209 48064
YAOGAN-3                
1 32289U 07055A   26202.29015332  .00001128  00000+0  12007-3 0  9992
2 32289  97.8142 231.8311 0001379  84.7404 275.3971 14.90893076 10959
COSMO-SKYMED 2          
1 32376U 07059A   26202.32138590  .00000247  00000+0  37645-4 0  9996
2 32376  97.8897  25.4260 0001469  94.2710 265.8671 14.82153712  7065
RADARSAT-2              
1 32382U 07061A   26202.32353242  .00000035  00000+0  30671-4 0  9996
2 32382  98.5792 208.7692 0001338  86.3263 273.8073 14.29984265970834
CARTOSAT-2A             
1 32783U 08021A   26202.27363324 -.00000218  00000+0 -22507-4 0  9998
2 32783  97.7611 249.8157 0011934   8.3702 351.7707 14.79278627983845
HUANJING 1A (HJ-1A)     
1 33320U 08041A   26202.28374644  .00000366  00000+0  49982-4 0  9994
2 33320  97.6711 186.8087 0019933  30.9301 329.3083 14.84056609963462
HUANJING 1B (HJ-1B)     
1 33321U 08041B   26202.26850145  .00001061  00000+0  13410-3 0  9997
2 33321  97.6547 189.8619 0037977  72.3149 288.2206 14.83373927963466
GEOEYE 1                
1 33331U 08042A   26202.24143602  .00000281  00000+0  61863-4 0  9999
2 33331  98.1322 275.7663 0003532 324.2538  35.8428 14.64652723955139
THEOS                   
1 33396U 08049A   26202.28078500  .00000122  00000+0  76904-4 0  9991
2 33396  98.5548 258.4544 0001118  94.9033 265.2272 14.20137583922807
COSMO-SKYMED 3          
1 33412U 08054A   26202.27083962  .00001563  00000+0  10815-3 0  9991
2 33412  97.8252  61.4039 0016402 145.6703 214.5587 15.07139049962075
YAOGAN-4                
1 33446U 08061A   26201.83034550  .00000609  00000+0  81046-4 0  9991
2 33446  97.9302 135.0937 0013388 326.5465  33.4902 14.83258280950651
GOSAT (IBUKI)           
1 33492U 09002A   26202.16126022  .00000418  00000+0  82256-4 0  9993
2 33492  98.0915 312.8213 0001081  91.2867 268.8462 14.67538530936442
DEIMOS-1                
1 35681U 09041A   26202.30296785  .00000083  00000+0  19248-4 0  9997
2 35681  97.7448 358.0588 0002807  84.1201 276.0329 14.75266561911917
